#aV2018 12 30  0  0  0.00000000     288 DD+AD WGS84 FIT  NGA
## 2034      0.00000000   300.00000000 58482 0.0000000000000
+   31     1  2  3  5  6  7  8  9 10 11 12 13 14 15 16 17 18
+         19 20 21 22 23 24 25 26 27 28 29 30 31 32  0  0  0
+          0  0  0  0  0  0  0  0  0  0  0  0  0  0  0  0  0
+          0  0  0  0  0  0  0  0  0  0  0  0  0  0  0  0  0
+          0  0  0  0  0  0  0  0  0  0  0  0  0  0  0  0  0
++         2  2  2  2  2  2  2  2  2  2  2  2  2  2  2  2  2
++         2  2  2  2  2  2  2  2  2  2  2  2  2  2  0  0  0
++         0  0  0  0  0  0  0  0  0  0  0  0  0  0  0  0  0
++         0  0  0  0  0  0  0  0  0  0  0  0  0  0  0  0  0
++         0  0  0  0  0  0  0  0  0  0  0  0  0  0  0  0  0
%c cc cc ccc ccc cccc cccc cccc cccc ccccc ccccc ccccc ccccc
%c cc cc ccc ccc cccc cccc cccc cccc ccccc ccccc ccccc ccccc
%f  0.0000000  0.000000000  0.00000000000  0.000000000000000
%f  0.0000000  0.000000000  0.00000000000  0.000000000000000
%i    0    0    0    0      0      0      0      0         0
%i    0    0    0    0      0      0      0      0         0
/*      NGA, ST. LOUIS,MO.                                  
/*   EPHEMERIS COMPUTED FROM 2 DAYS OF DATA                 
/*   EPOCHA v3 SMOOTHER                                     
/*   G1762 IERS2010 SATAF SATAPC                            
*  2018 12 30 18 20  0.00000000
P  1 -17047.141874  -4428.408556  19806.170562   -137.224976                    
V  1 -10167.371284 -23282.274561 -13542.004001     -0.061601                    
P  2  14606.521113  22073.828107  -2661.155883    -99.894059                    
V  2   -539.910761   4988.638224  31219.898595     -0.102470                    
P  3 -19029.374524   6765.439758  17173.388649    173.711506                    
V  3  10816.848184 -19133.080883  19546.463065      0.028342                    
P  5   9521.571674  13165.914788 -21098.111698      0.622269                    
V  5 -15020.442493  21958.318953   7163.082204      0.001402                    
P  6   5527.053712  24524.484238   8579.259063    306.530410                    
V  6  -6763.284820  -8745.750821  29509.897864     -0.072807                    
P  7 -11011.757416  11396.876323 -21001.990650     60.883929                    
V  7 -12371.423743 -24384.447670  -7120.293621     -0.070214                    
P  8 -24929.702727  -6247.156563  -7015.472485   -127.366809                    
V  8   9037.572834  -1749.863343 -30163.119054     -0.013419                    
P  9 -20981.011685   8672.072692 -13841.574471    477.495042                    
V  9 -17349.544332  -3355.675082  24271.029789     -0.043031                    
P 10   9759.996689 -23532.414658   7201.655985    143.679332                    
V 10   7391.028985  -6035.681842 -30110.036704     -0.059747                    
P 11 -22393.290036  -5809.336038  12311.571402   -681.988830                    
V 11 -10500.731082 -13563.163018 -24667.463065      0.049561                    
P 12  18152.413185  -2919.590566  18901.739776    280.346044                    
V 12 -14017.131771  20034.002535  16560.184999     -0.030401                    
P 13  19653.860889  12723.492779 -12690.493723    -79.932939                    
V 13 -16002.245186  -1007.356465 -26003.141618      0.012182                    
P 14  -5004.956177 -15715.530335  21154.962802    -93.904317                    
V 14  25939.979496   3241.057202   8494.071831      0.005404                    
P 15  26252.448619   2942.276152  -4599.832482   -334.231297                    
V 15  -5429.865981   3510.127508 -30029.883654      0.014857                    
P 16  -7755.000534 -13343.834677 -21718.203955     -9.734101                    
V 16  17537.439605 -20785.651838   6975.873017     -0.022802                    
P 17  -5821.245331  14120.746831  22127.929163    -11.496129                    
V 17 -26820.181779  -3640.089703  -4926.242843      0.051777                    
P 18 -18180.104510 -14016.727895  13003.998410     10.868855                    
V 18  -6076.698215 -16343.308461 -25049.538222      0.038288                    
P 19   4766.783511  15082.135793  21024.976912   -368.501963                    
V 19 -27068.578572  -3923.683475   8935.106245      0.039209                    
P 20  14229.891824 -22115.048581  -3299.063382    520.562551                    
V 20   1545.820461   5400.243985 -30757.369504      0.004257                    
P 21   7700.202954 -15185.471346 -19604.452299   -278.034121                    
V 21  14137.290245  22701.936232 -11483.829125      0.067966                    
P 22 -17136.226025  -1152.508895  20482.057665   -611.226537                    
V 22  11948.693346 -22710.151950   8863.192765     -0.089894                    
P 23 -26292.100546   1829.245449  -4447.030440   -202.013340                    
V 23  -5805.236850  -3315.733755  30418.621886      0.011150                    
P 24  18705.055096   8643.979580  16790.751950    -60.174642                    
V 24   8571.794056  19850.532362 -19280.075415     -0.004795                    
P 25  19087.240634 -14010.152782  11585.274710   -698.804031                    
V 25  -6557.248732  13775.784250  27264.050888     -0.054778                    
P 26   -703.960716 -20670.029989 -16580.399598     82.535194                    
V 26  13156.866164 -16653.376013  20374.761405      0.106988                    
P 27 -18291.533231 -11730.867313 -15547.686196    -40.701113                    
V 27  19491.588644    -94.764793 -22712.704210     -0.062451                    
P 28 -12570.708247  22618.274417   6789.140862    760.360620                    
V 28  -6310.544788   4874.088120 -30672.420421      0.013645                    
P 29  23354.424027  -4725.973056 -11751.519535    304.144404                    
V 29  14491.445405   3697.970494  27357.314453     -0.082341                    
P 30  -3247.517130  21145.039312 -15616.201692    -27.997271                    
V 30 -10150.370790 -17380.998645 -21570.084006     -0.060377                    
P 31  -6861.652055 -24787.038681   5637.686458     69.210604                    
V 31   5770.195234   5329.732842  30959.110551     -0.026279                    
P 32   2838.889357 -15138.725025  21672.102011   -296.555236                    
V 32  27377.066982   1982.507537  -2304.652050      0.163856                    
EOF
